STARLINK-1209           
1 45206U 20012AE  22335.36662081  .00001268  00000+0  10404-3 0  9997
2 45206  53.0567 328.1350 0001497  66.0880 294.0266 15.06398037154434
STARLINK-1210           
1 45207U 20012AF  22335.42743729  .00001777  00000+0  13815-3 0  9998
2 45207  53.0564 347.8727 0001659  59.4407 300.6745 15.06400729155113
STARLINK-1211           
1 45208U 20012AG  22335.40976331 -.00000481  00000+0 -13834-4 0  9999
2 45208  53.0015 347.9549 0001736  89.0409 271.0777 15.05588034154991
STARLINK-1219           
1 45210U 20012AJ  22335.29842808 -.00000513  00000+0 -15525-4 0  9995
2 45210  53.0558 348.4607 0001643  62.1441 297.9715 15.06408647154982
STARLINK-1231           
1 45212U 20012AL  22335.33161966 -.00001047  00000+0 -51399-4 0  9993
2 45212  53.0555 348.3149 0001571  58.1439 301.9703 15.06389910155056
STARLINK-1232           
1 45213U 20012AM  22335.55524271  .00013745  00000+0  30742-3 0  9994
2 45213  53.0578 275.1964 0004922  58.7536 301.3951 15.43798484156164
STARLINK-1233           
1 45214U 20012AN  22335.03947604  .00000480  00000+0  51144-4 0  9999
2 45214  53.0565 349.6068 0001730  57.1487 302.9669 15.06395293155055
STARLINK-1245           
1 45215U 20012AP  22335.30211605 -.00002255  00000+0 -13246-3 0  9999
2 45215  53.0550 348.4430 0001895  56.1481 303.9688 15.06412562155034
STARLINK-1271           
1 45217U 20012AR  22335.47535347  .00000503  00000+0  52678-4 0  9996
2 45217  53.0545 347.6626 0001645  61.6249 298.4906 15.06404892155122
STARLINK-1187           
1 45219U 20012AT  22335.47351739 -.00000740  00000+0 -30779-4 0  9992
2 45219  53.0536 327.6643 0001497  74.4852 285.6302 15.06402995155410
STARLINK-1189           
1 45221U 20012AV  22335.47719773  .00000285  00000+0  38020-4 0  9990
2 45221  53.0548 327.6525 0001935  55.8274 304.2899 15.06405335155402
STARLINK-1191           
1 45222U 20012AW  22335.28552917  .00000545  00000+0  55457-4 0  9997
2 45222  53.0567 328.5122 0001712  64.5167 295.5999 15.06400416155372
STARLINK-1212           
1 45223U 20012AX  22335.50574006  .00002258  00000+0  17042-3 0  9996
2 45223  53.0549 327.4978 0001792  59.6083 300.5083 15.06402440155415
STARLINK-1215           
1 45225U 20012AZ  22335.45876794 -.00000518  00000+0 -15899-4 0  9999
2 45225  53.0557 327.7303 0001540  63.2947 296.8199 15.06399736155353
STARLINK-1217           
1 45226U 20012BA  22335.39979382  .00000061  00000+0  22977-4 0  9996
2 45226  53.0536 328.0061 0001634  70.2491 289.8674 15.06401702155304
STARLINK-1221           
1 45227U 20012BB  22335.48825757  .00000316  00000+0  40110-4 0  9995
2 45227  53.0556 327.6124 0001536  57.2920 302.8217 15.06397803155322
STARLINK-1222           
1 45228U 20012BC  22335.42560128  .00000656  00000+0  62922-4 0  9990
2 45228  53.0547 327.8885 0001906  59.5118 300.6059 15.06395880155282
STARLINK-1226           
1 45229U 20012BD  22335.25604956  .00000195  00000+0  31989-4 0  9997
2 45229  53.0544 328.6531 0001960  59.1894 300.9287 15.06392194155263
STARLINK-1227           
1 45230U 20012BE  22335.38505097  .00001420  00000+0  11426-3 0  9994
2 45230  53.0573 328.0689 0001705  64.4083 295.7082 15.06394768155400
STARLINK-1235           
1 45232U 20012BG  22335.39516598  .00000136  00000+0  28040-4 0  9999
2 45232  53.0563 328.0151 0001678  58.9409 301.1745 15.06392293155391
STARLINK-1238           
1 45233U 20012BH  22335.04410513  .00001636  00000+0  12867-3 0  9997
2 45233  53.0555 349.5910 0001899  60.1121 300.0056 15.06409047155046
STARLINK-1243           
1 45234U 20012BJ  22335.48088936  .00000576  00000+0  57579-4 0  9998
2 45234  53.0543   7.6435 0001406  76.1510 283.9635 15.06394910154819
STARLINK-1246           
1 45235U 20012BK  22335.53249374  .00000093  00000+0  25173-4 0  9999
2 45235  53.0568   7.4036 0001984  44.4692 315.6456 15.06392600154876
STARLINK-1247           
1 45236U 20012BL  22335.38136826 -.00000397  00000+0 -77392-5 0  9990
2 45236  53.0554 328.0855 0001802  50.8636 309.2513 15.06401351155385
STARLINK-1270           
1 45237U 20012BM  22335.46982746  .00002349  00000+0  17650-3 0  9996
2 45237  53.0547 327.6707 0001741  56.5370 303.5786 15.06403537155409
STARLINK-1279           
1 45360U 20019A   22335.36200963  .00000828  00000+0  74450-4 0  9995
2 45360  53.0542  98.1682 0001592  60.0398 300.0749 15.06400247150127
STARLINK-1301           
1 45361U 20019B   22334.68656530  .00000256  00000+0  36109-4 0  9999
2 45361  53.0546 111.2022 0001561  81.1621 278.9545 15.06392997149897
STARLINK-1306           
1 45362U 20019C   22335.52880812 -.00001416  00000+0 -76220-4 0  9995
2 45362  53.0558 127.4285 0001592  77.1792 282.9375 15.06394991149734
STARLINK-1313           
1 45364U 20019E   22335.49074346  .00009333  00000+0  64255-3 0  9998
2 45364  53.0530  97.5839 0001652  68.8418 291.2747 15.06518261150148
STARLINK-1317           
1 45365U 20019F   22335.39123550  .00016543  00000+0  10768-2 0  9990
2 45365  52.9979 107.3728 0001104 130.8793 229.2292 15.08083680149945
STARLINK-1262           
1 45366U 20019G   22335.44771248  .00000216  00000+0  33373-4 0  9999
2 45366  53.0544 127.7800 0001783  68.1165 292.0013 15.06402862149733
STARLINK-1273           
1 45367U 20019H   22335.53618734  .00002210  00000+0  16721-3 0  9993
2 45367  53.0549 127.3816 0001642  83.4624 276.6552 15.06403509149742
STARLINK-1276           
1 45368U 20019J   22335.44033909  .00000228  00000+0  34260-4 0  9995
2 45368  53.0535 127.8225 0002365  58.4663 301.6557 15.06398186149732
STARLINK-1277           
1 45369U 20019K   22335.50573525  .00000481  00000+0  51199-4 0  9997
2 45369  53.0558 127.5181 0001123  85.0987 275.0131 15.06403391149740
STARLINK-1281           
1 45370U 20019L   22335.42928097  .00000616  00000+0  60263-4 0  9990
2 45370  53.0547 127.8746 0001614  70.5049 289.6114 15.06398331149731
STARLINK-1287           
1 45371U 20019M   22335.52417062  .00000357  00000+0  42855-4 0  9996
2 45371  53.0542 127.4323 0001619  72.0245 288.0920 15.06406775149745
STARLINK-1288           
1 45372U 20019N   22335.53986563  .00000155  00000+0  29323-4 0  9996
2 45372  53.0555 127.3542 0001646  81.9456 278.1720 15.06395339149746
STARLINK-1295           
1 45373U 20019P   22335.52143656 -.00001157  00000+0 -58802-4 0  9993
2 45373  53.0547 127.4458 0001286  73.7582 286.3549 15.06395751149742
STARLINK-1300           
1 45374U 20019Q   22335.45140321 -.00000307  00000+0 -17306-5 0  9993
2 45374  53.0547 127.7661 0001546  83.2785 276.8380 15.06394404149732
STARLINK-1302           
1 45375U 20019R   22335.53248714  .00000380  00000+0  44393-4 0  9992
2 45375  53.0549 127.3916 0001749  71.9647 288.1532 15.06404472149743
STARLINK-1304           
1 45376U 20019S   22335.55092230  .00000099  00000+0  25573-4 0  9991
2 45376  53.0552 127.3061 0001613  67.0998 293.0161 15.06399932149741
STARLINK-1305           
1 45377U 20019T   22335.51036586  .00000590  00000+0  58484-4 0  9993
2 45377  53.0547 127.4883 0001646  77.6355 282.4819 15.06405323149743
STARLINK-1310           
1 45378U 20019U   22335.43295802 -.00000176  00000+0  71053-5 0  9992
2 45378  53.0553 127.8451 0001767  67.0243 293.0933 15.06409718149735
STARLINK-1319           
1 45379U 20019V   22335.50300258 -.00000408  00000+0 -85212-5 0  9994
2 45379  53.0549 127.5278 0001676  80.7576 279.3602 15.06395794149744
STARLINK-1207           
1 45380U 20019W   22335.36846120  .00000976  00000+0  84408-4 0  9996
2 45380  53.0544 108.1406 0001302  77.1090 283.0044 15.06398217149998
STARLINK-1258           
1 45381U 20019X   22335.11413348  .00000741  00000+0  68632-4 0  9993
2 45381  53.0552 109.2861 0001459  94.4008 265.7148 15.06400261149950
STARLINK-1264           
1 45382U 20019Y   22335.41154371  .00015181  00000+0  95606-3 0  9999
2 45382  53.0511 107.0955 0001952 185.5686 174.5283 15.09363181149834
STARLINK-1266           
1 45383U 20019Z   22335.37214814  .00000478  00000+0  50991-4 0  9996
2 45383  53.0546 108.1285 0001357  73.8536 286.2602 15.06400101149997
STARLINK-1267           
1 45384U 20019AA  22335.42648736  .00000856  00000+0  76331-4 0  9993
2 45384  53.0547 107.8726 0001328  82.3440 277.7700 15.06403686150001
STARLINK-1272           
1 45386U 20019AC  22335.49746922  .00002039  00000+0  15575-3 0  9995
2 45386  53.0529 107.5551 0001395  92.1741 267.9408 15.06404959150014
STARLINK-1274           
1 45387U 20019AD  22335.38689089 -.00001777  00000+0 -10044-3 0  9990
2 45387  53.0539 108.0556 0001338  77.9353 282.1785 15.06398396149993
STARLINK-1280           
1 45388U 20019AE  22335.55460802 -.00000516  00000+0 -15776-4 0  9998
2 45388  53.0550 127.3055 0001599  68.2668 291.8491 15.06395277149734
STARLINK-1283           
1 45389U 20019AF  22335.46798161  .00001225  00000+0  10116-3 0  9999
2 45389  53.0524 107.6925 0001713  63.6901 296.4263 15.06398036150017
STARLINK-1284           
1 45390U 20019AG  22335.37583172  .00000075  00000+0  23941-4 0  9998
2 45390  53.0565 108.1043 0001936  85.4036 274.7174 15.06405070149991
STARLINK-1289           
1 45391U 20019AH  22335.38963398  .00001572  00000+0  12443-3 0  9999
2 45391  53.0551 108.0418 0001341  96.5936 263.5205 15.06398121149724
STARLINK-1290           
1 45392U 20019AJ  22335.53846091  .00024917  00000+0  11410-2 0  9997
2 45392  52.9994  83.3387 0002632 212.1192 147.9642 15.20368398150022
STARLINK-1291           
1 45393U 20019AK  22335.42006674  .00001373  00000+0  11102-3 0  9991
2 45393  53.0551 107.9054 0001261  70.8639 289.2487 15.06398369149761
STARLINK-1292           
1 45394U 20019AL  22335.11781886  .00001022  00000+0  87513-4 0  9994
2 45394  53.0543 109.2689 0001440  78.4126 281.7025 15.06400451149699
STARLINK-1297           
1 45395U 20019AM  22335.41271039  .00001838  00000+0  14229-3 0  9990
2 45395  53.0556 107.9343 0001747  53.6014 306.5136 15.06383969149184
STARLINK-1303           
1 45396U 20019AN  22334.66444145  .00000392  00000+0  45206-4 0  9991
2 45396  53.0554 111.2920 0001439  66.3444 293.7696 15.06400333149608
